{"fetched_at":"2026-07-23T07:05:18.920Z","source":"https://celestrak.org/NORAD/elements/gp.php?GROUP=oneweb&FORMAT=JSON","constellation":"oneweb","records":[{"OBJECT_NAME":"ONEWEB-0136","OBJECT_ID":"2020-100AA","EPOCH":"2026-07-22T19:03:49.022496","CLASSIFICATION_TYPE":"U","MEAN_MOTION":13.12442334,"ECCENTRICITY":0.00021713,"INCLINATION":87.8979,"RA_OF_ASC_NODE":343.5718,"ARG_OF_PERICENTER":100.9088,"MEAN_ANOMALY":259.2285,"EPHEMERIS_TYPE":0,"NORAD_CAT_ID":47282,"ELEMENT_SET_NO":999,"REV_AT_EPOCH":26933,"BSTAR":-0.00099688501,"MEAN_MOTION_DOT":-0.00000346,"MEAN_MOTION_DDOT":0},{"OBJECT_NAME":"ONEWEB-0137","OBJECT_ID":"2020-100AB","EPOCH":"2026-07-22T07:04:08.357088","CLASSIFICATION_TYPE":"U","MEAN_MOTION":13.12444548,"ECCENTRICITY":0.00017755,"INCLINATION":87.8984,"RA_OF_ASC_NODE":343.683,"ARG_OF_PERICENTER":93.6253,"MEAN_ANOMALY":266.5079,"EPHEMERIS_TYPE":0,"NORAD_CAT_ID":47283,"ELEMENT_SET_NO":999,"REV_AT_EPOCH":26917,"BSTAR":0.0011265674,"MEAN_MOTION_DOT":0.00000418,"MEAN_MOTION_DDOT":0},{"OBJECT_NAME":"ONEWEB-0138","OBJECT_ID":"2020-100AC","EPOCH":"2026-07-22T19:20:53.906208","CLASSIFICATION_TYPE":"U","MEAN_MOTION":13.12443337,"ECCENTRICITY":0.00020631,"INCLINATION":87.8982,"RA_OF_ASC_NODE":343.5853,"ARG_OF_PERICENTER":98.7938,"MEAN_ANOMALY":261.3425,"EPHEMERIS_TYPE":0,"NORAD_CAT_ID":47284,"ELEMENT_SET_NO":999,"REV_AT_EPOCH":26932,"BSTAR":-0.0011658471,"MEAN_MOTION_DOT":-0.00000407,"MEAN_MOTION_DDOT":0},{"OBJECT_NAME":"ONEWEB-0139","OBJECT_ID":"2020-100AD","EPOCH":"2026-07-22T20:19:40.247904","CLASSIFICATION_TYPE":"U","MEAN_MOTION":13.12442091,"ECCENTRICITY":0.00018596,"INCLINATION":87.8984,"RA_OF_ASC_NODE":343.5648,"ARG_OF_PERICENTER":92.5891,"MEAN_ANOMALY":267.5451,"EPHEMERIS_TYPE":0,"NORAD_CAT_ID":47285,"ELEMENT_SET_NO":999,"REV_AT_EPOCH":26940,"BSTAR":0.0011454602,"MEAN_MOTION_DOT":0.00000425,"MEAN_MOTION_DDOT":0},{"OBJECT_NAME":"ONEWEB-0140","OBJECT_ID":"2020-100AE","EPOCH":"2026-07-22T15:34:00.812928","CLASSIFICATION_TYPE":"U","MEAN_MOTION":13.1244315,"ECCENTRICITY":0.00018233,"INCLINATION":87.8983,"RA_OF_ASC_NODE":343.5943,"ARG_OF_PERICENTER":102.7275,"MEAN_ANOMALY":257.4057,"EPHEMERIS_TYPE":0,"NORAD_CAT_ID":47286,"ELEMENT_SET_NO":999,"REV_AT_EPOCH":26934,"BSTAR":-0.0010176618,"MEAN_MOTION_DOT":-0.00000353,"MEAN_MOTION_DDOT":0},{"OBJECT_NAME":"ONEWEB-0141","OBJECT_ID":"2020-100AF","EPOCH":"2026-07-22T14:49:54.058656","CLASSIFICATION_TYPE":"U","MEAN_MOTION":13.12443397,"ECCENTRICITY":0.00017712,"INCLINATION":87.8982,"RA_OF_ASC_NODE":343.6053,"ARG_OF_PERICENTER":88.3655,"MEAN_ANOMALY":271.7676,"EPHEMERIS_TYPE":0,"NORAD_CAT_ID":47287,"ELEMENT_SET_NO":999,"REV_AT_EPOCH":26932,"BSTAR":0.0010648312,"MEAN_MOTION_DOT":0.00000396,"MEAN_MOTION_DDOT":0},{"OBJECT_NAME":"ONEWEB-0142","OBJECT_ID":"2020-100AG","EPOCH":"2026-07-22T20:02:34.076832","CLASSIFICATION_TYPE":"U","MEAN_MOTION":13.12444505,"ECCENTRICITY":0.00020599,"INCLINATION":87.8975,"RA_OF_ASC_NODE":343.5812,"ARG_OF_PERICENTER":86.2054,"MEAN_ANOMALY":273.931,"EPHEMERIS_TYPE":0,"NORAD_CAT_ID":47288,"ELEMENT_SET_NO":999,"REV_AT_EPOCH":26934,"BSTAR":0.0010276205,"MEAN_MOTION_DOT":0.00000382,"MEAN_MOTION_DDOT":0},{"OBJECT_NAME":"ONEWEB-0143","OBJECT_ID":"2020-100AH","EPOCH":"2026-07-22T16:37:26.979168","CLASSIFICATION_TYPE":"U","MEAN_MOTION":13.12442805,"ECCENTRICITY":0.00018209,"INCLINATION":87.8975,"RA_OF_ASC_NODE":343.6095,"ARG_OF_PERICENTER":96.9965,"MEAN_ANOMALY":263.1371,"EPHEMERIS_TYPE":0,"NORAD_CAT_ID":47289,"ELEMENT_SET_NO":999,"REV_AT_EPOCH":26930,"BSTAR":0.0010086462,"MEAN_MOTION_DOT":0.00000376,"MEAN_MOTION_DDOT":0},{"OBJECT_NAME":"ONEWEB-0144","OBJECT_ID":"2020-100AJ","EPOCH":"2026-07-22T19:35:32.469792","CLASSIFICATION_TYPE":"U","MEAN_MOTION":13.12444096,"ECCENTRICITY":0.00022079,"INCLINATION":87.8984,"RA_OF_ASC_NODE":343.5614,"ARG_OF_PERICENTER":95.0094,"MEAN_ANOMALY":265.1287,"EPHEMERIS_TYPE":0,"NORAD_CAT_ID":47290,"ELEMENT_SET_NO":999,"REV_AT_EPOCH":26924,"BSTAR":-0.00045742205,"MEAN_MOTION_DOT":-0.00000152,"MEAN_MOTION_DDOT":0},{"OBJECT_NAME":"ONEWEB-0145","OBJECT_ID":"2020-100AK","EPOCH":"2026-07-22T15:14:29.856192","CLASSIFICATION_TYPE":"U","MEAN_MOTION":13.12442636,"ECCENTRICITY":0.00019188,"INCLINATION":87.8973,"RA_OF_ASC_NODE":343.6212,"ARG_OF_PERICENTER":96.1031,"MEAN_ANOMALY":264.0316,"EPHEMERIS_TYPE":0,"NORAD_CAT_ID":47291,"ELEMENT_SET_NO":999,"REV_AT_EPOCH":26941,"BSTAR":-0.00041652717,"MEAN_MOTION_DOT":-0.00000137,"MEAN_MOTION_DDOT":0},{"OBJECT_NAME":"ONEWEB-0146","OBJECT_ID":"2020-100AL","EPOCH":"2026-07-22T20:38:57.969024","CLASSIFICATION_TYPE":"U","MEAN_MOTION":13.12443073,"ECCENTRICITY":0.00015645,"INCLINATION":87.8977,"RA_OF_ASC_NODE":343.5701,"ARG_OF_PERICENTER":102.9782,"MEAN_ANOMALY":257.1521,"EPHEMERIS_TYPE":0,"NORAD_CAT_ID":47292,"ELEMENT_SET_NO":999,"REV_AT_EPOCH":26935,"BSTAR":0.000251123,"MEAN_MOTION_DOT":0.00000103,"MEAN_MOTION_DDOT":0},{"OBJECT_NAME":"ONEWEB-0147","OBJECT_ID":"2020-100AM","EPOCH":"2026-07-22T19:50:10.460544","CLASSIFICATION_TYPE":"U","MEAN_MOTION":13.12444617,"ECCENTRICITY":0.00019278,"INCLINATION":87.8981,"RA_OF_ASC_NODE":343.5599,"ARG_OF_PERICENTER":101.4311,"MEAN_ANOMALY":258.7035,"EPHEMERIS_TYPE":0,"NORAD_CAT_ID":47293,"ELEMENT_SET_NO":999,"REV_AT_EPOCH":26924,"BSTAR":0.00057757718,"MEAN_MOTION_DOT":0.00000221,"MEAN_MOTION_DDOT":0},{"OBJECT_NAME":"ONEWEB-0115","OBJECT_ID":"2021-025A","EPOCH":"2026-07-22T14:21:35.646336","CLASSIFICATION_TYPE":"U","MEAN_MOTION":13.13472144,"ECCENTRICITY":0.00018781,"INCLINATION":87.8987,"RA_OF_ASC_NODE":313.1782,"ARG_OF_PERICENTER":100.7159,"MEAN_ANOMALY":259.4182,"EPHEMERIS_TYPE":0,"NORAD_CAT_ID":48042,"ELEMENT_SET_NO":999,"REV_AT_EPOCH":25824,"BSTAR":0.00086358719,"MEAN_MOTION_DOT":0.00000328,"MEAN_MOTION_DDOT":0},{"OBJECT_NAME":"ONEWEB-0152","OBJECT_ID":"2021-025B","EPOCH":"2026-07-22T12:51:19.506816","CLASSIFICATION_TYPE":"U","MEAN_MOTION":13.13473552,"ECCENTRICITY":0.00018912,"INCLINATION":87.8992,"RA_OF_ASC_NODE":313.1897,"ARG_OF_PERICENTER":103.3445,"MEAN_ANOMALY":256.7896,"EPHEMERIS_TYPE":0,"NORAD_CAT_ID":48043,"ELEMENT_SET_NO":999,"REV_AT_EPOCH":25819,"BSTAR":0.00072341892,"MEAN_MOTION_DOT":0.00000277,"MEAN_MOTION_DDOT":0},{"OBJECT_NAME":"ONEWEB-0153","OBJECT_ID":"2021-025C","EPOCH":"2026-07-22T17:48:45.047520","CLASSIFICATION_TYPE":"U","MEAN_MOTION":13.13469827,"ECCENTRICITY":0.00020074,"INCLINATION":87.8978,"RA_OF_ASC_NODE":313.1484,"ARG_OF_PERICENTER":98.5609,"MEAN_ANOMALY":261.5748,"EPHEMERIS_TYPE":0,"NORAD_CAT_ID":48044,"ELEMENT_SET_NO":999,"REV_AT_EPOCH":25821,"BSTAR":0.00018190081,"MEAN_MOTION_DOT":7.9e-7,"MEAN_MOTION_DDOT":0},{"OBJECT_NAME":"ONEWEB-0154","OBJECT_ID":"2021-025D","EPOCH":"2026-07-22T17:43:52.354560","CLASSIFICATION_TYPE":"U","MEAN_MOTION":13.1347064,"ECCENTRICITY":0.00020625,"INCLINATION":87.8984,"RA_OF_ASC_NODE":313.1489,"ARG_OF_PERICENTER":105.0748,"MEAN_ANOMALY":255.061,"EPHEMERIS_TYPE":0,"NORAD_CAT_ID":48045,"ELEMENT_SET_NO":999,"REV_AT_EPOCH":25817,"BSTAR":0.0001412045,"MEAN_MOTION_DOT":6.4e-7,"MEAN_MOTION_DDOT":0}]}
